[{"OBJECT_NAME":"STARLINK-34666","OBJECT_ID":"2025-150E","EPOCH":"2026-03-09T13:35:11.011488","MEAN_MOTION":14.98338956,"ECCENTRICITY":0.0003289,"INCLINATION":70.0022,"RA_OF_ASC_NODE":134.9587,"ARG_OF_PERICENTER":265.9377,"MEAN_ANOMALY":94.1406,"EPHEMERIS_TYPE":0,"CLASSIFICATION_TYPE":"U","NORAD_CAT_ID":64794,"ELEMENT_SET_NO":999,"REV_AT_EPOCH":3649,"BSTAR":0.00097315,"MEAN_MOTION_DOT":0.0001154,"MEAN_MOTION_DDOT":0},{"OBJECT_NAME":"PEGASUS DEB","OBJECT_ID":"1994-029AER","EPOCH":"2026-02-26T06:39:21.581568","MEAN_MOTION":15.03561005,"ECCENTRICITY":0.01227406,"INCLINATION":81.7323,"RA_OF_ASC_NODE":356.2383,"ARG_OF_PERICENTER":77.7128,"MEAN_ANOMALY":283.7806,"EPHEMERIS_TYPE":0,"CLASSIFICATION_TYPE":"U","NORAD_CAT_ID":39306,"ELEMENT_SET_NO":999,"REV_AT_EPOCH":9218,"BSTAR":0.0046128236,"MEAN_MOTION_DOT":0.00074995,"MEAN_MOTION_DDOT":0}]
